USA 167                 
1 27691U 03008A   26198.10124616 -.00000010  00000+0  00000+0 0  9993
2 27691  11.0193  43.1367 0003482 312.5695 213.8960  1.00269973  7074
USA 169 (MILSTAR-2 4)   
1 27711U 03012A   26197.87033176 -.00000210  00000+0  00000+0 0  9996
2 27711  12.3936  29.5967 0099398  10.3010   0.2716  1.00273157 33250
ASIASAT 4               
1 27718U 03014A   26197.55765343 -.00000235  00000+0  00000+0 0  9995
2 27718   4.7763  75.3753 0002859  39.2437 168.0705  1.00272414 45597
HELLAS-SAT 2            
1 27811U 03020A   26197.90946851 -.00000098  00000+0  00000+0 0  9997
2 27811   7.4266  67.5251 0003727  82.1821 102.4005  1.00271603 43147
THURAYA-2               
1 27825U 03026A   26198.13405649  .00000112  00000+0  00000+0 0  9995
2 27825   8.8837  31.8335 0002472  26.5033 328.8855  1.00271961 84645
OPTUS C1                
1 27831U 03028B   26197.87102509 -.00000166  00000+0  00000+0 0  9993
2 27831   6.9620  69.0464 0005271  42.6121 292.2843  1.00269130 53354
USA 170                 
1 27875U 03040A   26197.74353000  .00000112  00000+0  00000+0 0  9995
2 27875  10.5615  47.6635 0001804  77.5268 101.3137  1.00275557 33293
GALAXY 13 (HORIZONS-1)  
1 27954U 03044A   26198.09560867  .00000122  00000+0  00000+0 0  9998
2 27954   1.4938  83.4785 0002119  33.2848  62.5569  1.00272135 46879
YAMAL 202               
1 28089U 03053A   26197.64087876 -.00000094  00000+0  00000+0 0  9991
2 28089   6.4144  70.5776 0003284  55.0817 203.0635  1.00271843 82996
UFO 11 (USA 174)        
1 28117U 03057A   26198.06900189 -.00000117  00000+0  00000+0 0  9991
2 28117   8.9500  33.6596 0002779  97.7732 263.8646  1.00270732 82754
USA 176 (DSP 22)        
1 28158U 04004A   26197.40268565 -.00000310  00000+0  00000+0 0  9996
2 28158  12.1014  25.8509 0001160 296.8763  67.0030  1.00265419 33238
ABS-4 (MOBISAT-1)       
1 28184U 04007A   26198.19419796  .00000026  00000+0  00000+0 0  9992
2 28184   6.1143  71.6384 0004576  47.1689 307.0862  1.00273915 52636
INTELSAT 10-02          
1 28358U 04022A   26198.12504312 -.00000021  00000+0  00000+0 0  9990
2 28358   0.0571 255.6497 0000260 338.7429 104.5661  1.00271862 80854
ANIK F2                 
1 28378U 04027A   26198.10332617 -.00000061  00000+0  00000+0 0  9996
2 28378   3.3632  79.0444 0003591  32.9758 108.9704  1.00271416 41564
AMC-15                  
1 28446U 04041A   26198.10453949 -.00000099  00000+0  00000+0 0  9991
2 28446   0.0347 300.5683 0002205 171.5607 115.3766  1.00271157 79606
NSS-10                  
1 28526U 05003A   26198.18239295 -.00000264  00000+0  00000+0 0  9997
2 28526   6.5233  70.0861 0002749  40.2868 212.8318  1.00272554 53454
INMARSAT 4-F1           
1 28628U 05009A   26197.87544513  .00000020  00000+0  00000+0 0  9992
2 28628   5.2079  42.7904 0002438  71.6678 313.4944  1.00271594 77976
DIRECTV 8               
1 28659U 05019A   26198.10176617  .00000000  00000+0  00000+0 0  9998
2 28659   0.0216  63.9974 0003046  57.0054  91.5113  1.00270341 77375
GALAXY 28 (G-28)        
1 28702U 05022A   26198.17683507 -.00000212  00000+0  00000+0 0  9995
2 28702   3.3730  78.5620 0002509  30.6561 222.3439  1.00271554 52278
THAICOM 4               
1 28786U 05028A   26198.11086617 -.00000373  00000+0  00000+0 0  9994
2 28786   0.3208  85.5040 0001496   8.5573   0.2709  1.00271113 52557
ANIK F1R                
1 28868U 05036A   26198.10410617 -.00000087  00000+0  00000+0 0  9996
2 28868   4.3874  76.2060 0003890  19.3137 129.5708  1.00271648 46758
SYRACUSE 3A             
1 28885U 05041B   26197.81017090  .00000116  00000+0  00000+0 0  9998
2 28885   4.7148  75.4730 0002686  37.8234 159.6669  1.00274846 76043
INMARSAT 4-F2           
1 28899U 05044A   26198.01115792 -.00000273  00000+0  00000+0 0  9992
2 28899   5.1326  43.6750 0002908  58.4844 340.1861  1.00269934 75821
METEOSAT-9 (MSG-2)      
1 28912U 05049B   26197.95449463  .00000110  00000+0  00000+0 0  9999
2 28912   9.4271  53.8702 0002277 356.8318 273.3582  1.00272968  7297
EUTELSAT 174A           
1 28924U 05052A   26197.80333904 -.00000004  00000+0  00000+0 0  9995
2 28924   4.2919  76.1593 0005888  40.5129 281.1010  1.00271623 52623
ECHOSTAR 10             
1 28935U 06003A   26198.10349949 -.00000066  00000+0  00000+0 0  9992
2 28935   0.0506 284.5872 0001470 149.0581 148.3593  1.00272105 74761
SPAINSAT                
1 28945U 06007A   26197.26705581 -.00000228  00000+0  00000+0 0  9991
2 28945   0.6367  86.0423 0004702  28.9956 244.9903  1.00269296 74510
JCSAT-5A                
1 29045U 06010A   26198.15947455 -.00000338  00000+0  00000+0 0  9996
2 29045   1.1850  83.8774 0001748  23.6878  16.8632  1.00271844 74079
ASTRA 1KR               
1 29055U 06012A   26198.12911647  .00000108  00000+0  00000+0 0  9994
2 29055   0.5494  83.1768 0003370  25.0993 252.1415  1.00271449 45994
GALAXY 16 (G-16)        
1 29236U 06023A   26198.10575285 -.00000137  00000+0  00000+0 0  9992
2 29236   0.0250 154.2019 0002569 319.5717 120.2121  1.00271540 73276
EUTELSAT 33F            
1 29270U 06032A   26198.20129472  .00000145  00000+0  00000+0 0  9992
2 29270   1.7374  81.9057 0003486  30.6706 287.9751  1.00272970 47601
JCSAT-3A                
1 29272U 06033A   26198.11086617 -.00000355  00000+0  00000+0 0  9992
2 29272   0.0440 255.7150 0002128 223.0462 344.0849  1.00272413 48047
