OBJECT_NAME,OBJECT_ID,EPOCH,MEAN_MOTION,ECCENTRICITY,INCLINATION,RA_OF_ASC_NODE,ARG_OF_PERICENTER,MEAN_ANOMALY,EPHEMERIS_TYPE,CLASSIFICATION_TYPE,NORAD_CAT_ID,ELEMENT_SET_NO,REV_AT_EPOCH,BSTAR,MEAN_MOTION_DOT,MEAN_MOTION_DDOT
USA 167,2003-008A,2026-07-17T02:25:47.668224,1.00269973,.0003482,11.0193,43.1367,312.5695,213.8960,0,U,27691,999,707,0,-.1E-6,0
USA 169 (MILSTAR-2 4),2003-012A,2026-07-16T20:53:16.664064,1.00273157,.0099398,12.3936,29.5967,10.3010,0.2716,0,U,27711,999,3325,0,-.21E-5,0
ASIASAT 4,2003-014A,2026-07-16T13:23:01.256352,1.00272414,.0002859,4.7763,75.3753,39.2437,168.0705,0,U,27718,999,4559,0,-.235E-5,0
HELLAS-SAT 2,2003-020A,2026-07-16T21:49:38.079264,1.00271603,.0003727,7.4266,67.5251,82.1821,102.4005,0,U,27811,999,4314,0,-.98E-6,0
THURAYA-2,2003-026A,2026-07-17T03:13:02.480736,1.00271961,.0002472,8.8837,31.8335,26.5033,328.8855,0,U,27825,999,8464,0,.112E-5,0
OPTUS C1,2003-028B,2026-07-16T20:54:16.567776,1.00269130,.0005271,6.9620,69.0464,42.6121,292.2843,0,U,27831,999,5335,0,-.166E-5,0
USA 170,2003-040A,2026-07-16T17:50:40.992000,1.00275557,.0001804,10.5615,47.6635,77.5268,101.3137,0,U,27875,999,3329,0,.112E-5,0
GALAXY 13 (HORIZONS-1),2003-044A,2026-07-17T02:17:40.589088,1.00272135,.0002119,1.4938,83.4785,33.2848,62.5569,0,U,27954,999,4687,0,.122E-5,0
YAMAL 202,2003-053A,2026-07-16T15:22:51.924864,1.00271843,.0003284,6.4144,70.5776,55.0817,203.0635,0,U,28089,999,8299,0,-.94E-6,0
UFO 11 (USA 174),2003-057A,2026-07-17T01:39:21.763296,1.00270732,.0002779,8.9500,33.6596,97.7732,263.8646,0,U,28117,999,8275,0,-.117E-5,0
USA 176 (DSP 22),2004-004A,2026-07-16T09:39:52.040160,1.00265419,.000116,12.1014,25.8509,296.8763,67.0030,0,U,28158,999,3323,0,-.31E-5,0
ABS-4 (MOBISAT-1),2004-007A,2026-07-17T04:39:38.703744,1.00273915,.0004576,6.1143,71.6384,47.1689,307.0862,0,U,28184,999,5263,0,.26E-6,0
INTELSAT 10-02,2004-022A,2026-07-17T03:00:03.725568,1.00271862,.000026,0.0571,255.6497,338.7429,104.5661,0,U,28358,999,8085,0,-.21E-6,0
ANIK F2,2004-027A,2026-07-17T02:28:47.381088,1.00271416,.0003591,3.3632,79.0444,32.9758,108.9704,0,U,28378,999,4156,0,-.61E-6,0
AMC-15,2004-041A,2026-07-17T02:30:32.211936,1.00271157,.0002205,0.0347,300.5683,171.5607,115.3766,0,U,28446,999,7960,0,-.99E-6,0
NSS-10,2005-003A,2026-07-17T04:22:38.750880,1.00272554,.0002749,6.5233,70.0861,40.2868,212.8318,0,U,28526,999,5345,0,-.264E-5,0
INMARSAT 4-F1,2005-009A,2026-07-16T21:00:38.459232,1.00271594,.0002438,5.2079,42.7904,71.6678,313.4944,0,U,28628,999,7797,0,.2E-6,0
DIRECTV 8,2005-019A,2026-07-17T02:26:32.597088,1.00270341,.0003046,0.0216,63.9974,57.0054,91.5113,0,U,28659,999,7737,0,0,0
GALAXY 28 (G-28),2005-022A,2026-07-17T04:14:38.550048,1.00271554,.0002509,3.3730,78.5620,30.6561,222.3439,0,U,28702,999,5227,0,-.212E-5,0
THAICOM 4,2005-028A,2026-07-17T02:39:38.837088,1.00271113,.0001496,0.3208,85.5040,8.5573,0.2709,0,U,28786,999,5255,0,-.373E-5,0
ANIK F1R,2005-036A,2026-07-17T02:29:54.773088,1.00271648,.000389,4.3874,76.2060,19.3137,129.5708,0,U,28868,999,4675,0,-.87E-6,0
SYRACUSE 3A,2005-041B,2026-07-16T19:26:38.765760,1.00274846,.0002686,4.7148,75.4730,37.8234,159.6669,0,U,28885,999,7604,0,.116E-5,0
INMARSAT 4-F2,2005-044A,2026-07-17T00:16:04.044288,1.00269934,.0002908,5.1326,43.6750,58.4844,340.1861,0,U,28899,999,7582,0,-.273E-5,0
METEOSAT-9 (MSG-2),2005-049B,2026-07-16T22:54:28.336032,1.00272968,.0002277,9.4271,53.8702,356.8318,273.3582,0,U,28912,999,729,0,.11E-5,0
EUTELSAT 174A,2005-052A,2026-07-16T19:16:48.493056,1.00271623,.0005888,4.2919,76.1593,40.5129,281.1010,0,U,28924,999,5262,0,-.4E-7,0
ECHOSTAR 10,2006-003A,2026-07-17T02:29:02.355936,1.00272105,.000147,0.0506,284.5872,149.0581,148.3593,0,U,28935,999,7476,0,-.66E-6,0
SPAINSAT,2006-007A,2026-07-16T06:24:33.621984,1.00269296,.0004702,0.6367,86.0423,28.9956,244.9903,0,U,28945,999,7451,0,-.228E-5,0
JCSAT-5A,2006-010A,2026-07-17T03:49:38.601120,1.00271844,.0001748,1.1850,83.8774,23.6878,16.8632,0,U,29045,999,7407,0,-.338E-5,0
ASTRA 1KR,2006-012A,2026-07-17T03:05:55.663008,1.00271449,.000337,0.5494,83.1768,25.0993,252.1415,0,U,29055,999,4599,0,.108E-5,0
GALAXY 16 (G-16),2006-023A,2026-07-17T02:32:17.046240,1.00271540,.0002569,0.0250,154.2019,319.5717,120.2121,0,U,29236,999,7327,0,-.137E-5,0
EUTELSAT 33F,2006-032A,2026-07-17T04:49:51.863808,1.00272970,.0003486,1.7374,81.9057,30.6706,287.9751,0,U,29270,999,4760,0,.145E-5,0
JCSAT-3A,2006-033A,2026-07-17T02:39:38.837088,1.00272413,.0002128,0.0440,255.7150,223.0462,344.0849,0,U,29272,999,4804,0,-.355E-5,0
